0 IRIS
1 39197U 13033A   13283.13700710  .00000732  00000-0  11289-3 0   958
2 39197 097.8996 108.7307 0028353 204.6029 155.3827 14.76086632 15346
0 IRIS
1 39197U 13033A   13283.54374162  .00000833  00000-0  12004-3 0   971
2 39197 097.9017 109.1282 0028299 202.3464 157.7010 14.76087063 15401
0 IRIS
1 39197U 13033A   13284.35718984  .00001013  00000-0  15331-3 0   961
2 39197 097.8996 109.9236 0028250 200.6716 159.3361 14.76090374 15520
0 IRIS
1 39197U 13033A   13285.84852118  .00001067  00000-0  16112-3 0   972
2 39197 097.8996 111.3823 0028339 195.6646 164.3699 14.76093977 15748
0 IRIS
1 39197U 13033A   13286.93312460  .00000905  00000-0  13771-3 0   983
2 39197 097.8997 112.4431 0028435 192.1496 167.9037 14.76095395 15907
0 IRIS
1 39197U 13033A   13288.01772617  .00000887  00000-0  13518-3 0   997
2 39197 097.8998 113.5041 0028479 188.7139 171.3585 14.76097465 16065
0 IRIS
1 39197U 13033A   13289.03453763  .00001102  00000-0  16604-3 0  1001
2 39197 097.8996 114.4985 0028350 185.6059 174.4838 14.76100828 16215
0 IRIS
1 39197U 13033A   13290.05134696  .00001153  00000-0  17340-3 0  1011
2 39197 097.9000 115.4927 0028524 182.2129 177.8937 14.76103630 16360
0 IRIS
1 39197U 13033A   13291.47487884  .00001135  00000-0  17076-3 0  1025
2 39197 097.8999 116.8848 0028765 177.4435 182.6953 14.76107181 16576
0 IRIS
1 39197U 13033A   13292.55947156  .00001165  00000-0  17511-3 0  1036
2 39197 097.8985 117.9453 0028683 173.9250 186.2314 14.76109926 16738
0 IRIS
1 39197U 13033A   13293.57627471  .00001278  00000-0  19131-3 0  1040
2 39197 097.8983 118.9401 0029004 170.4091 189.7684 14.76113327 16887
0 IRIS
1 39197U 13033A   13294.72865025  .00001051  00000-0  15853-3 0  1054
2 39197 097.8978 120.0664 0029047 166.6820 193.5137 14.76115209 17057
0 IRIS
1 39197U 13033A   13296.01659824  .00001023  00000-0  15458-3 0  1067
2 39197 097.8978 121.3255 0028969 162.6196 197.6023 14.76117882 17240
